LEMUR-2-GREENBERG       
1 42837U 17042N   26068.46200528  .00019778  00000+0  72539-3 0  9997
2 42837  97.3781 249.8007 0009157   4.0119 356.1192 15.27971352473146
STARLINK-30442          
1 57868U 23144E   26068.01118689 -.00004271  00000+0 -14583-3 0  9993
2 57868  42.9990 288.9921 0001201 271.5467  88.5247 15.27566283137497
